{
  "type": "FeatureCollection",
  "features": [
    {
      "type": "Feature",
      "properties": {
        "OBJECT_NAME": "INMARSAT 4-F2 (SOUTHPAN/PRN 122)",
        "OBJECT_ID": "2005-044A",
        "EPOCH": "2025-11-29T15:34:13.932768",
        "MEAN_MOTION": 1.00263605,
        "ECCENTRICITY": 0.0002964,
        "INCLINATION": 4.8334,
        "RA_OF_ASC_NODE": 43.6465,
        "ARG_OF_PERICENTER": 209.84,
        "MEAN_ANOMALY": 192.3633,
        "EPHEMERIS_TYPE": 0,
        "CLASSIFICATION_TYPE": "U",
        "NORAD_CAT_ID": 28899,
        "ELEMENT_SET_NO": 999,
        "REV_AT_EPOCH": 7352,
        "BSTAR": 0,
        "MEAN_MOTION_DOT": -2.42e-06,
        "MEAN_MOTION_DDOT": 0,
        "norad_id": 28899,
        "name": "INMARSAT 4-F2 (SOUTHPAN/PRN 122)",
        "group": "gnss",
        "longitude_deg": NaN,
        "latitude_deg": NaN,
        "alt_km": NaN,
        "orbit_class": "HEO",
        "timestamp": "2025-11-30T07:29:52.806517+00:00"
      },
      "geometry": {
        "type": "Point",
        "coordinates": [
          NaN,
          NaN
        ]
      }
    },
    {
      "type": "Feature",
      "properties": {
        "OBJECT_NAME": "GSAT-8 (GAGAN/PRN 127)",
        "OBJECT_ID": "2011-022A",
        "EPOCH": "2025-11-29T19:16:15.970368",
        "MEAN_MOTION": 1.00271733,
        "ECCENTRICITY": 0.0008774,
        "INCLINATION": 1.6131,
        "RA_OF_ASC_NODE": 84.3394,
        "ARG_OF_PERICENTER": 175.9716,
        "MEAN_ANOMALY": 152.7745,
        "EPHEMERIS_TYPE": 0,
        "CLASSIFICATION_TYPE": "U",
        "NORAD_CAT_ID": 37605,
        "ELEMENT_SET_NO": 999,
        "REV_AT_EPOCH": 5121,
        "BSTAR": 0,
        "MEAN_MOTION_DOT": 1.06e-06,
        "MEAN_MOTION_DDOT": 0,
        "norad_id": 37605,
        "name": "GSAT-8 (GAGAN/PRN 127)",
        "group": "gnss",
        "longitude_deg": NaN,
        "latitude_deg": NaN,
        "alt_km": NaN,
        "orbit_class": "HEO",
        "timestamp": "2025-11-30T07:29:52.808055+00:00"
      },
      "geometry": {
        "type": "Point",
        "coordinates": [
          NaN,
          NaN
        ]
      }
    },
    {
      "type": "Feature",
      "properties": {
        "OBJECT_NAME": "LUCH 5A (SDCM/PRN 140)",
        "OBJECT_ID": "2011-074B",
        "EPOCH": "2025-11-29T14:39:54.514368",
        "MEAN_MOTION": 1.00273263,
        "ECCENTRICITY": 0.0005726,
        "INCLINATION": 8.2437,
        "RA_OF_ASC_NODE": 76.7798,
        "ARG_OF_PERICENTER": 171.2103,
        "MEAN_ANOMALY": 207.7022,
        "EPHEMERIS_TYPE": 0,
        "CLASSIFICATION_TYPE": "U",
        "NORAD_CAT_ID": 37951,
        "ELEMENT_SET_NO": 999,
        "REV_AT_EPOCH": 5105,
        "BSTAR": 0,
        "MEAN_MOTION_DOT": -2.7e-07,
        "MEAN_MOTION_DDOT": 0,
        "norad_id": 37951,
        "name": "LUCH 5A (SDCM/PRN 140)",
        "group": "gnss",
        "longitude_deg": NaN,
        "latitude_deg": NaN,
        "alt_km": NaN,
        "orbit_class": "HEO",
        "timestamp": "2025-11-30T07:29:52.808364+00:00"
      },
      "geometry": {
        "type": "Point",
        "coordinates": [
          NaN,
          NaN
        ]
      }
    },
    {
      "type": "Feature",
      "properties": {
        "OBJECT_NAME": "SES-5 (EGNOS/PRN 136)",
        "OBJECT_ID": "2012-036A",
        "EPOCH": "2025-11-29T15:36:26.599968",
        "MEAN_MOTION": 1.00270678,
        "ECCENTRICITY": 0.0001959,
        "INCLINATION": 0.059,
        "RA_OF_ASC_NODE": 302.2608,
        "ARG_OF_PERICENTER": 300.3331,
        "MEAN_ANOMALY": 65.2952,
        "EPHEMERIS_TYPE": 0,
        "CLASSIFICATION_TYPE": "U",
        "NORAD_CAT_ID": 38652,
        "ELEMENT_SET_NO": 999,
        "REV_AT_EPOCH": 4246,
        "BSTAR": 0,
        "MEAN_MOTION_DOT": 5.5e-07,
        "MEAN_MOTION_DDOT": 0,
        "norad_id": 38652,
        "name": "SES-5 (EGNOS/PRN 136)",
        "group": "gnss",
        "longitude_deg": NaN,
        "latitude_deg": NaN,
        "alt_km": NaN,
        "orbit_class": "HEO",
        "timestamp": "2025-11-30T07:29:52.808607+00:00"
      },
      "geometry": {
        "type": "Point",
        "coordinates": [
          NaN,
          NaN
        ]
      }
    },
    {
      "type": "Feature",
      "properties": {
        "OBJECT_NAME": "GSAT-10 (GAGAN/PRN 128)",
        "OBJECT_ID": "2012-051B",
        "EPOCH": "2025-11-29T19:24:15.205248",
        "MEAN_MOTION": 1.00269886,
        "ECCENTRICITY": 0.0002803,
        "INCLINATION": 0.0415,
        "RA_OF_ASC_NODE": 261.4479,
        "ARG_OF_PERICENTER": 233.9645,
        "MEAN_ANOMALY": 307.5936,
        "EPHEMERIS_TYPE": 0,
        "CLASSIFICATION_TYPE": "U",
        "NORAD_CAT_ID": 38779,
        "ELEMENT_SET_NO": 999,
        "REV_AT_EPOCH": 4809,
        "BSTAR": 0,
        "MEAN_MOTION_DOT": -1.43e-06,
        "MEAN_MOTION_DDOT": 0,
        "norad_id": 38779,
        "name": "GSAT-10 (GAGAN/PRN 128)",
        "group": "gnss",
        "longitude_deg": NaN,
        "latitude_deg": NaN,
        "alt_km": NaN,
        "orbit_class": "HEO",
        "timestamp": "2025-11-30T07:29:52.808718+00:00"
      },
      "geometry": {
        "type": "Point",
        "coordinates": [
          NaN,
          NaN
        ]
      }
    },
    {
      "type": "Feature",
      "properties": {
        "OBJECT_NAME": "LUCH 5B (SDCM/PRN 125)",
        "OBJECT_ID": "2012-061A",
        "EPOCH": "2025-11-29T00:05:52.601856",
        "MEAN_MOTION": 1.00269591,
        "ECCENTRICITY": 0.00074542,
        "INCLINATION": 10.0493,
        "RA_OF_ASC_NODE": 51.8303,
        "ARG_OF_PERICENTER": 186.642,
        "MEAN_ANOMALY": 174.8183,
        "EPHEMERIS_TYPE": 0,
        "CLASSIFICATION_TYPE": "U",
        "NORAD_CAT_ID": 38977,
        "ELEMENT_SET_NO": 999,
        "REV_AT_EPOCH": 4760,
        "BSTAR": 0,
        "MEAN_MOTION_DOT": -1.19e-06,
        "MEAN_MOTION_DDOT": 0,
        "norad_id": 38977,
        "name": "LUCH 5B (SDCM/PRN 125)",
        "group": "gnss",
        "longitude_deg": NaN,
        "latitude_deg": NaN,
        "alt_km": NaN,
        "orbit_class": "HEO",
        "timestamp": "2025-11-30T07:29:52.808771+00:00"
      },
      "geometry": {
        "type": "Point",
        "coordinates": [
          NaN,
          NaN
        ]
      }
    },
    {
      "type": "Feature",
      "properties": {
        "OBJECT_NAME": "IRNSS-1A",
        "OBJECT_ID": "2013-034A",
        "EPOCH": "2025-11-24T20:31:38.771040",
        "MEAN_MOTION": 1.00276701,
        "ECCENTRICITY": 0.0021822,
        "INCLINATION": 35.2693,
        "RA_OF_ASC_NODE": 66.8111,
        "ARG_OF_PERICENTER": 185.5557,
        "MEAN_ANOMALY": 174.6472,
        "EPHEMERIS_TYPE": 0,
        "CLASSIFICATION_TYPE": "U",
        "NORAD_CAT_ID": 39199,
        "ELEMENT_SET_NO": 999,
        "REV_AT_EPOCH": 4532,
        "BSTAR": 0,
        "MEAN_MOTION_DOT": 8.3e-07,
        "MEAN_MOTION_DDOT": 0,
        "norad_id": 39199,
        "name": "IRNSS-1A",
        "group": "gnss",
        "longitude_deg": NaN,
        "latitude_deg": NaN,
        "alt_km": NaN,
        "orbit_class": "HEO",
        "timestamp": "2025-11-30T07:29:52.809144+00:00"
      },
      "geometry": {
        "type": "Point",
        "coordinates": [
          NaN,
          NaN
        ]
      }
    },
    {
      "type": "Feature",
      "properties": {
        "OBJECT_NAME": "ASTRA 5B (EGNOS/PRN 123)",
        "OBJECT_ID": "2014-011B",
        "EPOCH": "2025-11-29T20:21:01.792224",
        "MEAN_MOTION": 1.00272501,
        "ECCENTRICITY": 0.000458,
        "INCLINATION": 0.0776,
        "RA_OF_ASC_NODE": 52.2203,
        "ARG_OF_PERICENTER": 210.1284,
        "MEAN_ANOMALY": 135.4158,
        "EPHEMERIS_TYPE": 0,
        "CLASSIFICATION_TYPE": "U",
        "NORAD_CAT_ID": 39617,
        "ELEMENT_SET_NO": 999,
        "REV_AT_EPOCH": 4266,
        "BSTAR": 0,
        "MEAN_MOTION_DOT": 1.58e-06,
        "MEAN_MOTION_DDOT": 0,
        "norad_id": 39617,
        "name": "ASTRA 5B (EGNOS/PRN 123)",
        "group": "gnss",
        "longitude_deg": NaN,
        "latitude_deg": NaN,
        "alt_km": NaN,
        "orbit_class": "HEO",
        "timestamp": "2025-11-30T07:29:52.809637+00:00"
      },
      "geometry": {
        "type": "Point",
        "coordinates": [
          NaN,
          NaN
        ]
      }
    }
  ]
}