INMARSAT 4-F2           
1 28899U 05044A   25333.64877237 -.00000242  00000+0  00000+0 0  9996
2 28899   4.8334  43.6465 0002964 209.8400 192.3633  1.00263605 73529
GSAT-8                  
1 37605U 11022A   25333.80296262  .00000106  00000+0  00000+0 0  9993
2 37605   1.6131  84.3394 0008774 175.9716 152.7745  1.00271733 51212
LUCH-5A                 
1 37951U 11074B   25333.61104762 -.00000027  00000+0  00000+0 0  9999
2 37951   8.2437  76.7798 0005726 171.2103 207.7022  1.00273263 51055
SES-5                   
1 38652U 12036A   25333.65030787  .00000055  00000+0  00000+0 0  9996
2 38652   0.0590 302.2608 0001959 300.3331  65.2952  1.00270678 42464
GSAT-10                 
1 38779U 12051B   25333.80850932 -.00000143  00000+0  00000+0 0  9991
2 38779   0.0415 261.4479 0002803 233.9645 307.5936  1.00269886 48098
LUCH-5B                 
1 38977U 12061A   25333.00408104 -.00000119  00000+0  00000+0 0  9997
2 38977  10.0493  51.8303 0007454 186.6420 174.8183  1.00269591 47602
IRNSS-1A                
1 39199U 13034A   25328.85530985  .00000083  00000+0  00000+0 0  9994
2 39199  35.2693  66.8111 0021822 185.5557 174.6472  1.00276701 45324
ASTRA 5B                
1 39617U 14011B   25333.84793741  .00000158  00000+0  00000+0 0  9994
2 39617   0.0776  52.2203 0004580 210.1284 135.4158  1.00272501 42660
